{
  "type": "FeatureCollection",
  "features": [
    {
      "type": "Feature",
      "properties": {
        "norad_id": 34079,
        "name": "IRIDIUM 33 DEB",
        "group": "iridium-33-debris",
        "lat": 57.291427289634136,
        "lon": -174.78119351522864,
        "alt_km": 614.0936260236213,
        "timestamp": "2025-12-07T20:38:14.448667+00:00",
        "meta_object_name": "IRIDIUM 33 DEB",
        "meta_object_id": "1997-051CN",
        "meta_epoch": "2025-12-07T02:22:48.351936",
        "meta_mean_motion": 14.83309464,
        "meta_eccentricity": 0.00062689,
        "meta_inclination": 86.377,
        "meta_ra_of_asc_node": 11.2267,
        "meta_arg_of_pericenter": 26.0666,
        "meta_mean_anomaly": 356.8012,
        "meta_ephemeris_type": 0,
        "meta_classification_type": "U",
        "meta_norad_cat_id": 34079,
        "meta_element_set_no": 999,
        "meta_rev_at_epoch": 88894,
        "meta_bstar": 0.0024974802,
        "meta_mean_motion_dot": 0.00020511,
        "meta_mean_motion_ddot": 0,
        "tle_line1": "1 34079U 97051CN  25341.09917074  .00020511  00000+0  24975-2 0  9994",
        "tle_line2": "2 34079  86.3770  11.2267 0006268  26.0666 356.8012 14.83309464888947"
      },
      "geometry": {
        "type": "Point",
        "coordinates": [
          -174.78119351522864,
          57.291427289634136
        ]
      }
    },
    {
      "type": "Feature",
      "properties": {
        "norad_id": 34088,
        "name": "IRIDIUM 33 DEB",
        "group": "iridium-33-debris",
        "lat": 76.79761883417171,
        "lon": 48.600415839076724,
        "alt_km": 589.2677312096384,
        "timestamp": "2025-12-07T20:38:14.448678+00:00",
        "meta_object_name": "IRIDIUM 33 DEB",
        "meta_object_id": "1997-051CX",
        "meta_epoch": "2025-12-06T22:31:14.068992",
        "meta_mean_motion": 14.90964191,
        "meta_eccentricity": 0.00052577,
        "meta_inclination": 86.3849,
        "meta_ra_of_asc_node": 33.389,
        "meta_arg_of_pericenter": 198.2241,
        "meta_mean_anomaly": 336.0244,
        "meta_ephemeris_type": 0,
        "meta_classification_type": "U",
        "meta_norad_cat_id": 34088,
        "meta_element_set_no": 999,
        "meta_rev_at_epoch": 88655,
        "meta_bstar": 0.0039064328,
        "meta_mean_motion_dot": 0.00038774,
        "meta_mean_motion_ddot": 0,
        "tle_line1": "1 34088U 97051CX  25340.93835728  .00038774  00000+0  39064-2 0  9996",
        "tle_line2": "2 34088  86.3849  33.3890 0005257 198.2241 336.0244 14.90964191886553"
      },
      "geometry": {
        "type": "Point",
        "coordinates": [
          48.600415839076724,
          76.79761883417171
        ]
      }
    },
    {
      "type": "Feature",
      "properties": {
        "norad_id": 34091,
        "name": "IRIDIUM 33 DEB",
        "group": "iridium-33-debris",
        "lat": 72.46463543194506,
        "lon": 80.74922664278213,
        "alt_km": 630.6535098895256,
        "timestamp": "2025-12-07T20:38:14.448688+00:00",
        "meta_object_name": "IRIDIUM 33 DEB",
        "meta_object_id": "1997-051DA",
        "meta_epoch": "2025-12-07T05:43:03.828000",
        "meta_mean_motion": 14.81184978,
        "meta_eccentricity": 0.00330049,
        "meta_inclination": 86.342,
        "meta_ra_of_asc_node": 69.3525,
        "meta_arg_of_pericenter": 313.1267,
        "meta_mean_anomaly": 46.7195,
        "meta_ephemeris_type": 0,
        "meta_classification_type": "U",
        "meta_norad_cat_id": 34091,
        "meta_element_set_no": 999,
        "meta_rev_at_epoch": 87785,
        "meta_bstar": 0.0076006006,
        "meta_mean_motion_dot": 0.00060142,
        "meta_mean_motion_ddot": 0,
        "tle_line1": "1 34091U 97051DA  25341.23823875  .00060142  00000+0  76006-2 0  9995",
        "tle_line2": "2 34091  86.3420  69.3525 0033004 313.1267  46.7195 14.81184978877853"
      },
      "geometry": {
        "type": "Point",
        "coordinates": [
          80.74922664278213,
          72.46463543194506
        ]
      }
    },
    {
      "type": "Feature",
      "properties": {
        "norad_id": 34097,
        "name": "IRIDIUM 33 DEB",
        "group": "iridium-33-debris",
        "lat": 61.752298155975296,
        "lon": 10.668014507228023,
        "alt_km": 726.9819671644564,
        "timestamp": "2025-12-07T20:38:14.448698+00:00",
        "meta_object_name": "IRIDIUM 33 DEB",
        "meta_object_id": "1997-051DG",
        "meta_epoch": "2025-12-07T00:16:03.805824",
        "meta_mean_motion": 14.3470981,
        "meta_eccentricity": 0.00832478,
        "meta_inclination": 86.1998,
        "meta_ra_of_asc_node": 3.9361,
        "meta_arg_of_pericenter": 20.8098,
        "meta_mean_anomaly": 339.6453,
        "meta_ephemeris_type": 0,
        "meta_classification_type": "U",
        "meta_norad_cat_id": 34097,
        "meta_element_set_no": 999,
        "meta_rev_at_epoch": 87037,
        "meta_bstar": 0.0021305207,
        "meta_mean_motion_dot": 6.291e-05,
        "meta_mean_motion_ddot": 0,
        "tle_line1": "1 34097U 97051DG  25341.01115516  .00006291  00000+0  21305-2 0  9990",
        "tle_line2": "2 34097  86.1998   3.9361 0083247  20.8098 339.6453 14.34709810870374"
      },
      "geometry": {
        "type": "Point",
        "coordinates": [
          10.668014507228023,
          61.752298155975296
        ]
      }
    },
    {
      "type": "Feature",
      "properties": {
        "norad_id": 34145,
        "name": "IRIDIUM 33 DEB",
        "group": "iridium-33-debris",
        "lat": -19.537345964369734,
        "lon": 156.04706961091662,
        "alt_km": 756.2779319442398,
        "timestamp": "2025-12-07T20:38:14.448708+00:00",
        "meta_object_name": "IRIDIUM 33 DEB",
        "meta_object_id": "1997-051DY",
        "meta_epoch": "2025-12-06T23:44:21.212160",
        "meta_mean_motion": 14.42227143,
        "meta_eccentricity": 0.00555175,
        "meta_inclination": 86.2111,
        "meta_ra_of_asc_node": 335.0873,
        "meta_arg_of_pericenter": 112.1004,
        "meta_mean_anomaly": 248.6104,
        "meta_ephemeris_type": 0,
        "meta_classification_type": "U",
        "meta_norad_cat_id": 34145,
        "meta_element_set_no": 999,
        "meta_rev_at_epoch": 87555,
        "meta_bstar": 0.0016428415,
        "meta_mean_motion_dot": 5.534e-05,
        "meta_mean_motion_ddot": 0,
        "tle_line1": "1 34145U 97051DY  25340.98913440  .00005534  00000+0  16428-2 0  9990",
        "tle_line2": "2 34145  86.2111 335.0873 0055517 112.1004 248.6104 14.42227143875554"
      },
      "geometry": {
        "type": "Point",
        "coordinates": [
          156.04706961091662,
          -19.537345964369734
        ]
      }
    },
    {
      "type": "Feature",
      "properties": {
        "norad_id": 34146,
        "name": "IRIDIUM 33 DEB",
        "group": "iridium-33-debris",
        "lat": 77.23899209832456,
        "lon": 8.635874037258324,
        "alt_km": 738.6537352481491,
        "timestamp": "2025-12-07T20:38:14.448718+00:00",
        "meta_object_name": "IRIDIUM 33 DEB",
        "meta_object_id": "1997-051DZ",
        "meta_epoch": "2025-12-07T07:05:35.066400",
        "meta_mean_motion": 14.48992065,
        "meta_eccentricity": 0.00250964,
        "meta_inclination": 86.2832,
        "meta_ra_of_asc_node": 352.2054,
        "meta_arg_of_pericenter": 241.082,
        "meta_mean_anomaly": 134.8625,
        "meta_ephemeris_type": 0,
        "meta_classification_type": "U",
        "meta_norad_cat_id": 34146,
        "meta_element_set_no": 999,
        "meta_rev_at_epoch": 88028,
        "meta_bstar": 0.0015620936,
        "meta_mean_motion_dot": 5.964e-05,
        "meta_mean_motion_ddot": 0,
        "tle_line1": "1 34146U 97051DZ  25341.29554475  .00005964  00000+0  15621-2 0  9996",
        "tle_line2": "2 34146  86.2832 352.2054 0025096 241.0820 134.8625 14.48992065880282"
      },
      "geometry": {
        "type": "Point",
        "coordinates": [
          8.635874037258324,
          77.23899209832456
        ]
      }
    },
    {
      "type": "Feature",
      "properties": {
        "norad_id": 34159,
        "name": "IRIDIUM 33 DEB",
        "group": "iridium-33-debris",
        "lat": -22.311525147240143,
        "lon": 48.82216340859546,
        "alt_km": 753.2470586331765,
        "timestamp": "2025-12-07T20:38:14.448729+00:00",
        "meta_object_name": "IRIDIUM 33 DEB",
        "meta_object_id": "1997-051EN",
        "meta_epoch": "2025-12-07T04:02:44.779776",
        "meta_mean_motion": 14.3847292,
        "meta_eccentricity": 0.00261399,
        "meta_inclination": 86.3518,
        "meta_ra_of_asc_node": 50.617,
        "meta_arg_of_pericenter": 307.4313,
        "meta_mean_anomaly": 52.4506,
        "meta_ephemeris_type": 0,
        "meta_classification_type": "U",
        "meta_norad_cat_id": 34159,
        "meta_element_set_no": 999,
        "meta_rev_at_epoch": 87879,
        "meta_bstar": 0.00071185552,
        "meta_mean_motion_dot": 2.2e-05,
        "meta_mean_motion_ddot": 0,
        "tle_line1": "1 34159U 97051EN  25341.16857384  .00002200  00000+0  71186-3 0  9990",
        "tle_line2": "2 34159  86.3518  50.6170 0026139 307.4313  52.4506 14.38472920878797"
      },
      "geometry": {
        "type": "Point",
        "coordinates": [
          48.82216340859546,
          -22.311525147240143
        ]
      }
    }
  ]
}